[
  {
    "OBJECT_NAME": "STARLINK-5707",
    "OBJECT_ID": "23083D",
    "EPOCH": "2025-11-11T03:22:44.641344",
    "MEAN_MOTION": 15.02541609,
    "ECCENTRICITY": 0.0001233,
    "INCLINATION": 43.0051,
    "RA_OF_ASC_NODE": 6.2807,
    "ARG_OF_PERICENTER": 270.5968,
    "MEAN_ANOMALY": 89.4734,
    "EPHEMERIS_TYPE": 0,
    "CLASSIFICATION_TYPE": "U",
    "NORAD_CAT_ID": 56879,
    "ELEMENT_SET_NO": 999,
    "REV_AT_EPOCH": 13383,
    "BSTAR": 0.00013581,
    "MEAN_MOTION_DOT": 1.632e-05,
    "MEAN_MOTION_DDOT": 0.0,
    "TLE_LINE1": "1 56879U 23083D   25315.14079446  .00001632  00000+0  13581-3 0  9994",
    "TLE_LINE2": "2 56879  43.0051   6.2807 0001233 270.5968  89.4734 15.02541609133835",
    "COMMENT": "Grouped by shell and plane from TLE"
  },
  {
    "OBJECT_NAME": "STARLINK-6177",
    "OBJECT_ID": "23083E",
    "EPOCH": "2025-11-11T04:34:29.801280",
    "MEAN_MOTION": 15.02535234,
    "ECCENTRICITY": 3.87e-05,
    "INCLINATION": 42.9991,
    "RA_OF_ASC_NODE": 5.7882,
    "ARG_OF_PERICENTER": 254.453,
    "MEAN_ANOMALY": 105.6269,
    "EPHEMERIS_TYPE": 0,
    "CLASSIFICATION_TYPE": "U",
    "NORAD_CAT_ID": 56880,
    "ELEMENT_SET_NO": 999,
    "REV_AT_EPOCH": 13384,
    "BSTAR": 7.1196e-05,
    "MEAN_MOTION_DOT": 7.59e-06,
    "MEAN_MOTION_DDOT": 0.0,
    "TLE_LINE1": "1 56880U 23083E   25315.19062270  .00000759  00000+0  71196-4 0  9994",
    "TLE_LINE2": "2 56880  42.9991   5.7882 0000387 254.4530 105.6269 15.02535234133842",
    "COMMENT": "Grouped by shell and plane from TLE"
  },
  {
    "OBJECT_NAME": "STARLINK-5853",
    "OBJECT_ID": "23083F",
    "EPOCH": "2025-11-11T03:19:32.862720",
    "MEAN_MOTION": 15.02536288,
    "ECCENTRICITY": 0.0001096,
    "INCLINATION": 43.0054,
    "RA_OF_ASC_NODE": 6.2618,
    "ARG_OF_PERICENTER": 274.722,
    "MEAN_ANOMALY": 85.3497,
    "EPHEMERIS_TYPE": 0,
    "CLASSIFICATION_TYPE": "U",
    "NORAD_CAT_ID": 56881,
    "ELEMENT_SET_NO": 999,
    "REV_AT_EPOCH": 13383,
    "BSTAR": 1.1558e-05,
    "MEAN_MOTION_DOT": -4.7e-07,
    "MEAN_MOTION_DDOT": 0.0,
    "TLE_LINE1": "1 56881U 23083F   25315.13857480 -.00000047  00000+0  11558-4 0  9991",
    "TLE_LINE2": "2 56881  43.0054   6.2618 0001096 274.7220  85.3497 15.02536288133833",
    "COMMENT": "Grouped by shell and plane from TLE"
  },
  {
    "OBJECT_NAME": "STARLINK-6175",
    "OBJECT_ID": "23083G",
    "EPOCH": "2025-11-11T04:36:05.491008",
    "MEAN_MOTION": 15.02542953,
    "ECCENTRICITY": 0.0001786,
    "INCLINATION": 43.0035,
    "RA_OF_ASC_NODE": 5.7953,
    "ARG_OF_PERICENTER": 278.6306,
    "MEAN_ANOMALY": 81.4334,
    "EPHEMERIS_TYPE": 0,
    "CLASSIFICATION_TYPE": "U",
    "NORAD_CAT_ID": 56882,
    "ELEMENT_SET_NO": 999,
    "REV_AT_EPOCH": 13384,
    "BSTAR": 0.00012144,
    "MEAN_MOTION_DOT": 1.437e-05,
    "MEAN_MOTION_DDOT": 0.0,
    "TLE_LINE1": "1 56882U 23083G   25315.19173022  .00001437  00000+0  12144-3 0  9995",
    "TLE_LINE2": "2 56882  43.0035   5.7953 0001786 278.6306  81.4334 15.02542953133847",
    "COMMENT": "Grouped by shell and plane from TLE"
  },
  {
    "OBJECT_NAME": "STARLINK-6171",
    "OBJECT_ID": "23083H",
    "EPOCH": "2025-11-11T04:50:28.738464",
    "MEAN_MOTION": 15.02534635,
    "ECCENTRICITY": 0.0001454,
    "INCLINATION": 43.0046,
    "RA_OF_ASC_NODE": 5.8738,
    "ARG_OF_PERICENTER": 278.3002,
    "MEAN_ANOMALY": 81.7676,
    "EPHEMERIS_TYPE": 0,
    "CLASSIFICATION_TYPE": "U",
    "NORAD_CAT_ID": 56883,
    "ELEMENT_SET_NO": 999,
    "REV_AT_EPOCH": 13384,
    "BSTAR": 5.3498e-05,
    "MEAN_MOTION_DOT": 5.19e-06,
    "MEAN_MOTION_DDOT": 0.0,
    "TLE_LINE1": "1 56883U 23083H   25315.20172151  .00000519  00000+0  53498-4 0  9998",
    "TLE_LINE2": "2 56883  43.0046   5.8738 0001454 278.3002  81.7676 15.02534635133844",
    "COMMENT": "Grouped by shell and plane from TLE"
  },
  {
    "OBJECT_NAME": "STARLINK-5515",
    "OBJECT_ID": "23083J",
    "EPOCH": "2025-11-11T02:50:46.290048",
    "MEAN_MOTION": 15.02544532,
    "ECCENTRICITY": 0.0001345,
    "INCLINATION": 43.0036,
    "RA_OF_ASC_NODE": 6.1081,
    "ARG_OF_PERICENTER": 263.689,
    "MEAN_ANOMALY": 96.3799,
    "EPHEMERIS_TYPE": 0,
    "CLASSIFICATION_TYPE": "U",
    "NORAD_CAT_ID": 56884,
    "ELEMENT_SET_NO": 999,
    "REV_AT_EPOCH": 13383,
    "BSTAR": 0.00011163,
    "MEAN_MOTION_DOT": 1.305e-05,
    "MEAN_MOTION_DDOT": 0.0,
    "TLE_LINE1": "1 56884U 23083J   25315.11859132  .00001305  00000+0  11163-3 0  9996",
    "TLE_LINE2": "2 56884  43.0036   6.1081 0001345 263.6890  96.3799 15.02544532133834",
    "COMMENT": "Grouped by shell and plane from TLE"
  },
  {
    "OBJECT_NAME": "STARLINK-5095",
    "OBJECT_ID": "23083K",
    "EPOCH": "2025-11-11T04:45:41.447232",
    "MEAN_MOTION": 15.02543293,
    "ECCENTRICITY": 0.0001417,
    "INCLINATION": 43.0034,
    "RA_OF_ASC_NODE": 5.848,
    "ARG_OF_PERICENTER": 280.9708,
    "MEAN_ANOMALY": 79.0975,
    "EPHEMERIS_TYPE": 0,
    "CLASSIFICATION_TYPE": "U",
    "NORAD_CAT_ID": 56885,
    "ELEMENT_SET_NO": 999,
    "REV_AT_EPOCH": 13384,
    "BSTAR": 0.0002004,
    "MEAN_MOTION_DOT": 2.505e-05,
    "MEAN_MOTION_DDOT": 0.0,
    "TLE_LINE1": "1 56885U 23083K   25315.19839638  .00002505  00000+0  20040-3 0  9991",
    "TLE_LINE2": "2 56885  43.0034   5.8480 0001417 280.9708  79.0975 15.02543293133840",
    "COMMENT": "Grouped by shell and plane from TLE"
  },
  {
    "OBJECT_NAME": "STARLINK-5496",
    "OBJECT_ID": "23083L",
    "EPOCH": "2025-11-11T04:24:54.473184",
    "MEAN_MOTION": 15.02546747,
    "ECCENTRICITY": 0.000135,
    "INCLINATION": 43.0037,
    "RA_OF_ASC_NODE": 5.7387,
    "ARG_OF_PERICENTER": 263.5791,
    "MEAN_ANOMALY": 96.4898,
    "EPHEMERIS_TYPE": 0,
    "CLASSIFICATION_TYPE": "U",
    "NORAD_CAT_ID": 56886,
    "ELEMENT_SET_NO": 999,
    "REV_AT_EPOCH": 13384,
    "BSTAR": 2.2193e-05,
    "MEAN_MOTION_DOT": 9.6e-07,
    "MEAN_MOTION_DDOT": 0.0,
    "TLE_LINE1": "1 56886U 23083L   25315.18396381  .00000096  00000+0  22193-4 0  9999",
    "TLE_LINE2": "2 56886  43.0037   5.7387 0001350 263.5791  96.4898 15.02546747133848",
    "COMMENT": "Grouped by shell and plane from TLE"
  },
  {
    "OBJECT_NAME": "STARLINK-6180",
    "OBJECT_ID": "23083M",
    "EPOCH": "2025-11-11T04:31:17.967360",
    "MEAN_MOTION": 15.025432,
    "ECCENTRICITY": 0.0001659,
    "INCLINATION": 43.0043,
    "RA_OF_ASC_NODE": 5.7708,
    "ARG_OF_PERICENTER": 271.3919,
    "MEAN_ANOMALY": 88.6734,
    "EPHEMERIS_TYPE": 0,
    "CLASSIFICATION_TYPE": "U",
    "NORAD_CAT_ID": 56887,
    "ELEMENT_SET_NO": 999,
    "REV_AT_EPOCH": 13384,
    "BSTAR": 0.00014832000000000002,
    "MEAN_MOTION_DOT": 1.801e-05,
    "MEAN_MOTION_DDOT": 0.0,
    "TLE_LINE1": "1 56887U 23083M   25315.18840240  .00001801  00000+0  14832-3 0  9993",
    "TLE_LINE2": "2 56887  43.0043   5.7708 0001659 271.3919  88.6734 15.02543200133847",
    "COMMENT": "Grouped by shell and plane from TLE"
  },
  {
    "OBJECT_NAME": "STARLINK-6181",
    "OBJECT_ID": "23083N",
    "EPOCH": "2025-11-11T04:05:43.763424",
    "MEAN_MOTION": 15.0252805,
    "ECCENTRICITY": 6.54e-05,
    "INCLINATION": 43.0065,
    "RA_OF_ASC_NODE": 5.6425,
    "ARG_OF_PERICENTER": 279.7882,
    "MEAN_ANOMALY": 80.2886,
    "EPHEMERIS_TYPE": 0,
    "CLASSIFICATION_TYPE": "U",
    "NORAD_CAT_ID": 56888,
    "ELEMENT_SET_NO": 999,
    "REV_AT_EPOCH": 13384,
    "BSTAR": 0.0,
    "MEAN_MOTION_DOT": -1.916e-05,
    "MEAN_MOTION_DDOT": 0.0,
    "TLE_LINE1": "1 56888U 23083N   25315.17064541 -.00001916  00000+0 -12684-3 0  9997",
    "TLE_LINE2": "2 56888  43.0065   5.6425 0000654 279.7882  80.2886 15.02528050133844",
    "COMMENT": "Grouped by shell and plane from TLE"
  },
  {
    "OBJECT_NAME": "STARLINK-6169",
    "OBJECT_ID": "23083P",
    "EPOCH": "2025-11-11T04:20:06.416448",
    "MEAN_MOTION": 15.02544538,
    "ECCENTRICITY": 0.0001854,
    "INCLINATION": 43.0032,
    "RA_OF_ASC_NODE": 5.7116,
    "ARG_OF_PERICENTER": 267.6446,
    "MEAN_ANOMALY": 92.4184,
    "EPHEMERIS_TYPE": 0,
    "CLASSIFICATION_TYPE": "U",
    "NORAD_CAT_ID": 56889,
    "ELEMENT_SET_NO": 999,
    "REV_AT_EPOCH": 13384,
    "BSTAR": 0.00017669000000000002,
    "MEAN_MOTION_DOT": 2.184e-05,
    "MEAN_MOTION_DDOT": 0.0,
    "TLE_LINE1": "1 56889U 23083P   25315.18062982  .00002184  00000+0  17669-3 0  9990",
    "TLE_LINE2": "2 56889  43.0032   5.7116 0001854 267.6446  92.4184 15.02544538133847",
    "COMMENT": "Grouped by shell and plane from TLE"
  },
  {
    "OBJECT_NAME": "STARLINK-5528",
    "OBJECT_ID": "23083Q",
    "EPOCH": "2025-11-11T04:07:19.650144",
    "MEAN_MOTION": 15.02535198,
    "ECCENTRICITY": 0.0001456,
    "INCLINATION": 43.0082,
    "RA_OF_ASC_NODE": 5.6505,
    "ARG_OF_PERICENTER": 278.7945,
    "MEAN_ANOMALY": 81.2732,
    "EPHEMERIS_TYPE": 0,
    "CLASSIFICATION_TYPE": "U",
    "NORAD_CAT_ID": 56890,
    "ELEMENT_SET_NO": 999,
    "REV_AT_EPOCH": 13384,
    "BSTAR": 2.3276e-06,
    "MEAN_MOTION_DOT": -1.72e-06,
    "MEAN_MOTION_DDOT": 0.0,
    "TLE_LINE1": "1 56890U 23083Q   25315.17175521 -.00000172  00000+0  23276-5 0  9994",
    "TLE_LINE2": "2 56890  43.0082   5.6505 0001456 278.7945  81.2732 15.02535198133847",
    "COMMENT": "Grouped by shell and plane from TLE"
  },
  {
    "OBJECT_NAME": "STARLINK-6213",
    "OBJECT_ID": "23083R",
    "EPOCH": "2025-11-11T04:15:19.012896",
    "MEAN_MOTION": 15.02541545,
    "ECCENTRICITY": 0.0001299,
    "INCLINATION": 43.0032,
    "RA_OF_ASC_NODE": 5.689,
    "ARG_OF_PERICENTER": 266.0387,
    "MEAN_ANOMALY": 94.0307,
    "EPHEMERIS_TYPE": 0,
    "CLASSIFICATION_TYPE": "U",
    "NORAD_CAT_ID": 56891,
    "ELEMENT_SET_NO": 999,
    "REV_AT_EPOCH": 13384,
    "BSTAR": 9.5617e-05,
    "MEAN_MOTION_DOT": 1.088e-05,
    "MEAN_MOTION_DDOT": 0.0,
    "TLE_LINE1": "1 56891U 23083R   25315.17730339  .00001088  00000+0  95617-4 0  9992",
    "TLE_LINE2": "2 56891  43.0032   5.6890 0001299 266.0387  94.0307 15.02541545133848",
    "COMMENT": "Grouped by shell and plane from TLE"
  }
]